{"type":"FeatureCollection","features":[{"type":"Feature","geometry":{"type":"Polygon","coordinates":[[[103.511,16.198],[103.724,16.219],[103.755,16.271],[103.702,16.382],[103.804,16.457],[103.872,16.469],[103.921,16.444],[104.042,16.44],[104.047,16.397],[104.173,16.446],[104.244,16.433],[104.319,16.455],[104.328,16.329],[104.356,16.323],[104.324,16.255],[104.272,16.237],[104.233,16.167],[104.098,16.079],[104.109,15.982],[104.026,15.981],[104.015,15.886],[104.134,15.8],[104.128,15.721],[104.162,15.688],[104.185,15.597],[104.129,15.564],[104.079,15.535],[103.983,15.403],[103.863,15.456],[103.775,15.435],[103.64,15.449],[103.405,15.437],[103.443,15.508],[103.38,15.525],[103.298,15.596],[103.354,15.702],[103.44,15.717],[103.46,15.841],[103.497,15.927],[103.469,16.118],[103.511,16.198]]]},"properties":{"iso":"TH-45"}},{"type":"Feature","geometry":{"type":"Polygon","coordinates":[[[99.687,19.43],[99.852,19.467],[99.922,19.458],[99.959,19.389],[100.004,19.429],[100.076,19.426],[100.217,19.636],[100.317,19.649],[100.407,19.736],[100.478,19.613],[100.483,19.548],[100.484,19.488],[100.572,19.468],[100.518,19.404],[100.527,19.349],[100.603,19.333],[100.595,19.25],[100.619,19.145],[100.551,19.065],[100.472,19.047],[100.405,18.945],[100.34,18.807],[100.301,18.819],[100.113,18.808],[100.04,18.898],[99.993,18.909],[99.929,18.97],[99.83,19.009],[99.783,19.057],[99.706,19.24],[99.709,19.339],[99.687,19.43]]]},"properties":{"iso":"TH-56"}},{"type":"Feature","geometry":{"type":"Polygon","coordinates":[[[99.089,15.887],[99.196,15.94],[99.281,15.898],[99.358,15.927],[99.477,15.902],[99.537,15.925],[99.614,15.881],[99.656,15.789],[99.731,15.826],[99.761,15.921],[99.828,16.022],[99.896,16.081],[99.947,16.227],[99.952,16.296],[99.994,16.338],[100.034,16.258],[100.027,16.217],[100.086,16.151],[100.168,15.956],[100.293,15.914],[100.315,15.945],[100.414,15.923],[100.506,15.925],[100.602,15.952],[100.755,15.931],[100.799,15.854],[100.789,15.805],[100.831,15.68],[100.831,15.622],[100.739,15.497],[100.743,15.435],[100.563,15.271],[100.489,15.164],[100.443,15.06],[100.376,15.084],[100.349,15.155],[100.309,15.167],[100.292,15.223],[100.216,15.35],[100.124,15.418],[100.058,15.42],[99.956,15.515],[99.916,15.512],[99.82,15.623],[99.695,15.679],[99.586,15.62],[99.522,15.564],[99.479,15.566],[99.37,15.663],[99.247,15.722],[99.217,15.766],[99.133,15.783],[99.089,15.887]]]},"properties":{"iso":"TH-60"}},{"type":"Feature","geometry":{"type":"Polygon","coordinates":[[[102.081,17.643],[102.193,17.659],[102.288,17.655],[102.327,17.681],[102.344,17.551],[102.446,17.339],[102.444,17.28],[102.541,17.261],[102.512,17.186],[102.52,17.1],[102.575,17.038],[102.688,16.987],[102.61,16.769],[102.522,16.79],[102.41,16.792],[102.344,16.818],[102.278,16.894],[102.191,16.859],[102.071,16.885],[102.033,16.949],[102.153,17.018],[102.089,17.105],[101.977,17.146],[101.945,17.206],[102.026,17.328],[101.989,17.451],[102.079,17.452],[102.125,17.48],[102.136,17.552],[102.081,17.643]]]},"properties":{"iso":"TH-39"}},{"type":"Feature","geometry":{"type":"Polygon","coordinates":[[[100.849,13.479],[100.959,13.632],[100.956,13.662],[100.861,13.697],[100.91,13.791],[100.914,13.946],[100.914,13.961],[101.044,13.977],[101.14,13.968],[101.165,13.851],[101.221,13.878],[101.397,13.847],[101.545,13.776],[101.594,13.785],[101.679,13.752],[101.749,13.804],[101.814,13.721],[101.869,13.726],[101.916,13.586],[101.988,13.587],[101.998,13.5],[101.946,13.482],[101.995,13.336],[101.77,13.181],[101.717,13.172],[101.683,13.248],[101.562,13.332],[101.534,13.391],[101.441,13.413],[101.366,13.455],[101.297,13.539],[101.157,13.589],[101.06,13.55],[101.018,13.474],[100.974,13.464],[100.849,13.479]]]},"properties":{"iso":"TH-24"}},{"type":"Feature","geometry":{"type":"Polygon","coordinates":[[[103.405,15.437],[103.64,15.449],[103.775,15.435],[103.863,15.456],[103.983,15.403],[104.063,15.386],[104.043,15.331],[103.976,15.256],[103.969,15.167],[103.995,15.141],[104.02,15.029],[103.916,14.859],[103.992,14.811],[104.007,14.729],[104.067,14.616],[104.042,14.515],[104.063,14.446],[104.046,14.341],[103.882,14.338],[103.558,14.432],[103.498,14.412],[103.468,14.365],[103.266,14.35],[103.243,14.337],[103.257,14.454],[103.23,14.592],[103.251,14.618],[103.312,14.814],[103.426,14.929],[103.421,15.024],[103.448,15.046],[103.424,15.13],[103.444,15.263],[103.501,15.295],[103.444,15.344],[103.403,15.309],[103.328,15.337],[103.293,15.3],[103.222,15.324],[103.146,15.402],[103.09,15.419],[103.111,15.481],[103.343,15.409],[103.405,15.437]]]},"properties":{"iso":"TH-32"}},{"type":"Feature","geometry":{"type":"Polygon","coordinates":[[[101.41,15],[101.379,15.064],[101.275,15.092],[101.279,15.244],[101.3,15.302],[101.345,15.286],[101.406,15.213],[101.566,15.253],[101.627,15.303],[101.813,15.387],[101.885,15.385],[101.9,15.431],[101.966,15.481],[101.951,15.535],[102.035,15.651],[102.114,15.633],[102.164,15.725],[102.256,15.756],[102.335,15.806],[102.426,15.693],[102.516,15.718],[102.558,15.702],[102.692,15.72],[102.724,15.667],[102.789,15.639],[102.798,15.547],[102.827,15.511],[102.943,15.504],[102.978,15.424],[102.981,15.187],[102.859,15.158],[102.777,15.072],[102.761,14.992],[102.707,14.952],[102.56,14.937],[102.547,14.895],[102.579,14.822],[102.444,14.807],[102.482,14.754],[102.51,14.655],[102.484,14.572],[102.498,14.501],[102.559,14.455],[102.617,14.269],[102.583,14.204],[102.594,14.149],[102.539,14.121],[102.427,14.157],[102.303,14.128],[102.12,14.144],[101.96,14.256],[101.986,14.352],[101.87,14.365],[101.764,14.349],[101.751,14.313],[101.632,14.427],[101.541,14.426],[101.483,14.462],[101.409,14.425],[101.277,14.506],[101.243,14.48],[101.185,14.544],[101.215,14.592],[101.199,14.756],[101.274,14.729],[101.346,14.805],[101.444,14.859],[101.451,14.921],[101.41,15]]]},"properties":{"iso":"TH-30"}},{"type":"Feature","geometry":{"type":"Polygon","coordinates":[[[99.316,17.269],[99.394,17.202],[99.444,17.228],[99.472,17.366],[99.409,17.468],[99.44,17.527],[99.478,17.675],[99.473,17.729],[99.55,17.807],[99.662,17.797],[99.743,17.725],[99.785,17.786],[99.896,17.804],[99.969,17.705],[99.973,17.62],[99.928,17.571],[100.037,17.436],[100.011,17.3],[99.969,17.248],[99.983,17.166],[99.929,17.119],[100.008,17.044],[100.128,16.969],[100.123,16.891],[100.032,16.891],[99.949,16.862],[99.932,16.786],[99.885,16.738],[99.904,16.688],[99.858,16.735],[99.674,16.74],[99.555,16.815],[99.495,16.889],[99.375,16.865],[99.346,16.888],[99.267,16.959],[99.278,17.06],[99.313,17.141],[99.316,17.269]]]},"properties":{"iso":"TH-64"}},{"type":"Feature","geometry":{"type":"Polygon","coordinates":[[[99.204,13.204],[99.321,13.166],[99.347,13.23],[99.418,13.192],[99.636,13.199],[99.703,13.312],[99.761,13.333],[99.859,13.328],[99.855,13.269],[99.952,13.29],[100.007,13.198],[100.069,13.15],[100.066,13.085],[100.102,13.056],[100.041,12.965],[99.976,12.773],[99.956,12.634],[99.821,12.63],[99.752,12.578],[99.679,12.579],[99.618,12.542],[99.522,12.586],[99.44,12.581],[99.248,12.719],[99.185,12.862],[99.171,13.015],[99.1,13.073],[99.136,13.128],[99.132,13.203],[99.204,13.204]]]},"properties":{"iso":"TH-76"}},{"type":"Feature","geometry":{"type":"Polygon","coordinates":[[[102.335,15.806],[102.256,15.756],[102.164,15.725],[102.114,15.633],[102.035,15.651],[101.951,15.535],[101.966,15.481],[101.9,15.431],[101.885,15.385],[101.813,15.387],[101.627,15.303],[101.566,15.253],[101.406,15.213],[101.345,15.286],[101.3,15.302],[101.372,15.406],[101.364,15.561],[101.396,15.687],[101.335,15.739],[101.325,15.846],[101.372,15.897],[101.386,15.956],[101.341,15.981],[101.325,16.088],[101.369,16.237],[101.345,16.26],[101.374,16.348],[101.51,16.543],[101.507,16.669],[101.633,16.683],[101.75,16.668],[101.956,16.633],[101.989,16.567],[102.082,16.492],[102.182,16.506],[102.244,16.469],[102.375,16.435],[102.461,16.397],[102.411,16.251],[102.328,16.127],[102.264,16.066],[102.391,15.994],[102.335,15.806]]]},"properties":{"iso":"TH-36"}},{"type":"Feature","geometry":{"type":"Polygon","coordinates":[[[100.739,15.497],[100.831,15.622],[100.831,15.68],[100.789,15.805],[100.799,15.854],[100.755,15.931],[100.773,15.978],[100.693,16.035],[100.629,16.048],[100.646,16.172],[100.699,16.25],[100.668,16.347],[100.831,16.521],[100.837,16.596],[100.913,16.711],[100.893,16.791],[100.937,16.797],[101.029,16.901],[101.067,16.9],[101.121,16.926],[101.126,17.031],[101.17,17.045],[101.231,17.112],[101.272,17.081],[101.404,17.091],[101.532,17.055],[101.542,17],[101.602,17.004],[101.649,17.046],[101.719,16.902],[101.725,16.755],[101.788,16.764],[101.75,16.668],[101.633,16.683],[101.507,16.669],[101.51,16.543],[101.374,16.348],[101.345,16.26],[101.369,16.237],[101.325,16.088],[101.341,15.981],[101.386,15.956],[101.372,15.897],[101.325,15.846],[101.335,15.739],[101.396,15.687],[101.364,15.561],[101.372,15.406],[101.3,15.302],[101.256,15.336],[101.24,15.397],[101.122,15.396],[100.974,15.483],[100.88,15.465],[100.739,15.497]]]},"properties":{"iso":"TH-67"}},{"type":"Feature","geometry":{"type":"MultiPolygon","coordinates":[[[[99.973,9.788],[100.016,9.802],[100.073,9.766],[100.069,9.679],[99.984,9.71],[99.973,9.788]]],[[[98.511,9.306],[98.552,9.354],[98.664,9.348],[98.654,9.419],[98.75,9.527],[98.75,9.601],[98.778,9.681],[98.878,9.724],[99.03,9.73],[99.14,9.795],[99.173,9.651],[99.244,9.481],[99.301,9.411],[99.219,9.339],[99.224,9.257],[99.378,9.188],[99.466,9.198],[99.519,9.275],[99.61,9.268],[99.648,9.305],[99.768,9.322],[99.729,9.155],[99.772,9.111],[99.777,9.048],[99.694,8.93],[99.583,8.91],[99.527,8.846],[99.529,8.756],[99.493,8.672],[99.415,8.569],[99.288,8.484],[99.24,8.39],[99.266,8.341],[99.207,8.322],[99.067,8.355],[99.006,8.315],[98.899,8.349],[98.884,8.515],[98.929,8.561],[98.852,8.642],[98.75,8.669],[98.713,8.625],[98.591,8.623],[98.547,8.652],[98.604,8.715],[98.609,8.783],[98.505,8.876],[98.458,8.884],[98.457,8.955],[98.517,8.986],[98.481,9.064],[98.49,9.141],[98.533,9.237],[98.511,9.306]]],[[[99.935,9.501],[99.915,9.571],[99.983,9.587],[100.051,9.557],[100.067,9.486],[100.013,9.421],[99.959,9.419],[99.935,9.501]]]]},"properties":{"iso":"TH-84"}},{"type":"Feature","geometry":{"type":"Polygon","coordinates":[[[103.983,15.403],[104.079,15.535],[104.129,15.564],[104.155,15.495],[104.247,15.371],[104.353,15.337],[104.418,15.285],[104.468,15.259],[104.584,15.241],[104.674,15.251],[104.737,15.168],[104.688,15.137],[104.698,14.957],[104.814,14.892],[104.816,14.812],[104.887,14.661],[104.85,14.633],[104.831,14.552],[104.861,14.522],[104.907,14.399],[104.755,14.405],[104.641,14.423],[104.566,14.355],[104.378,14.378],[104.248,14.378],[104.172,14.359],[104.108,14.378],[104.046,14.341],[104.063,14.446],[104.042,14.515],[104.067,14.616],[104.007,14.729],[103.992,14.811],[103.916,14.859],[104.02,15.029],[103.995,15.141],[103.969,15.167],[103.976,15.256],[104.043,15.331],[104.063,15.386],[103.983,15.403]]]},"properties":{"iso":"TH-33"}},{"type":"Feature","geometry":{"type":"Polygon","coordinates":[[[102.058,18.088],[102.105,18.214],[102.163,18.204],[102.186,18.148],[102.286,18.061],[102.346,18.045],[102.46,17.971],[102.555,17.969],[102.614,17.938],[102.598,17.834],[102.74,17.884],[102.855,17.971],[102.969,18.004],[103.019,17.971],[103.079,18.034],[103.086,18.132],[103.136,18.16],[103.182,18.266],[103.298,18.304],[103.259,18.262],[103.4,17.986],[103.399,17.867],[103.316,17.83],[103.264,17.881],[103.192,17.841],[103.172,17.8],[103.099,17.86],[103.03,17.869],[102.989,17.82],[102.937,17.887],[102.848,17.807],[102.863,17.726],[102.784,17.656],[102.777,17.619],[102.678,17.594],[102.621,17.621],[102.611,17.69],[102.535,17.755],[102.466,17.756],[102.445,17.815],[102.327,17.95],[102.241,18.001],[102.153,17.992],[102.111,18.062],[102.058,18.088]]]},"properties":{"iso":"TH-43"}},{"type":"Feature","geometry":{"type":"Polygon","coordinates":[[[100.914,13.946],[100.91,13.791],[100.861,13.697],[100.71,13.717],[100.698,13.656],[100.636,13.649],[100.518,13.667],[100.521,13.605],[100.454,13.606],[100.453,13.504],[100.409,13.493],[100.333,13.721],[100.328,13.804],[100.501,13.801],[100.544,13.85],[100.568,13.951],[100.687,13.916],[100.914,13.946]]]},"properties":{"iso":"TH-10"}},{"type":"Feature","geometry":{"type":"Polygon","coordinates":[[[102.071,16.885],[102.191,16.859],[102.278,16.894],[102.344,16.818],[102.41,16.792],[102.522,16.79],[102.61,16.769],[102.688,16.987],[102.758,17.032],[102.83,16.981],[102.832,16.876],[102.946,16.841],[103.113,16.913],[103.195,16.831],[103.164,16.758],[103.163,16.643],[103.161,16.609],[103.089,16.511],[102.948,16.449],[102.956,16.397],[102.848,16.261],[102.87,16.109],[102.857,16.08],[102.914,15.991],[102.905,15.929],[102.946,15.789],[102.892,15.753],[102.889,15.67],[102.834,15.622],[102.789,15.639],[102.724,15.667],[102.692,15.72],[102.558,15.702],[102.516,15.718],[102.426,15.693],[102.335,15.806],[102.391,15.994],[102.264,16.066],[102.328,16.127],[102.411,16.251],[102.461,16.397],[102.375,16.435],[102.244,16.469],[102.182,16.506],[102.082,16.492],[101.989,16.567],[101.956,16.633],[101.75,16.668],[101.788,16.764],[101.871,16.796],[101.947,16.85],[102.071,16.885]]]},"properties":{"iso":"TH-40"}},{"type":"Feature","geometry":{"type":"Polygon","coordinates":[[[102.081,17.643],[102.136,17.552],[102.125,17.48],[102.079,17.452],[101.989,17.451],[102.026,17.328],[101.945,17.206],[101.977,17.146],[102.089,17.105],[102.153,17.018],[102.033,16.949],[102.071,16.885],[101.947,16.85],[101.871,16.796],[101.788,16.764],[101.725,16.755],[101.719,16.902],[101.649,17.046],[101.602,17.004],[101.542,17],[101.532,17.055],[101.404,17.091],[101.272,17.081],[101.231,17.112],[101.17,17.045],[101.126,17.031],[101.121,16.926],[101.067,16.9],[101.047,17.017],[101.064,17.153],[101.095,17.216],[100.981,17.329],[100.906,17.327],[100.91,17.412],[100.882,17.467],[100.927,17.57],[100.968,17.572],[101.044,17.545],[101.15,17.467],[101.189,17.531],[101.23,17.536],[101.306,17.651],[101.398,17.691],[101.548,17.788],[101.569,17.864],[101.617,17.894],[101.711,17.902],[101.768,18.054],[101.824,18.06],[101.907,18.031],[101.938,18.077],[102.105,18.214],[102.058,18.088],[102.022,17.982],[102.051,17.826],[102.023,17.74],[102.034,17.68],[102.081,17.643]]]},"properties":{"iso":"TH-42"}},{"type":"Feature","geometry":{"type":"Polygon","coordinates":[[[101.41,15],[101.451,14.921],[101.444,14.859],[101.346,14.805],[101.274,14.729],[101.199,14.756],[101.215,14.592],[101.185,14.544],[101.243,14.48],[101.209,14.375],[101.161,14.347],[101.081,14.384],[101.041,14.325],[100.952,14.272],[100.892,14.276],[100.823,14.246],[100.821,14.315],[100.762,14.41],[100.769,14.565],[100.598,14.554],[100.571,14.603],[100.594,14.656],[100.612,14.699],[100.741,14.781],[100.821,14.803],[100.951,14.747],[101.031,14.842],[101.092,14.852],[101.41,15]]]},"properties":{"iso":"TH-19"}},{"type":"Feature","geometry":{"type":"Polygon","coordinates":[[[99.133,15.783],[99.217,15.766],[99.247,15.722],[99.37,15.663],[99.479,15.566],[99.522,15.564],[99.586,15.62],[99.695,15.679],[99.82,15.623],[99.916,15.512],[99.956,15.515],[100.058,15.42],[100.07,15.343],[100.046,15.278],[100,15.294],[99.888,15.284],[99.765,15.317],[99.716,15.274],[99.754,15.163],[99.809,15.076],[99.737,15.016],[99.726,14.961],[99.648,14.994],[99.632,14.938],[99.51,14.984],[99.436,14.989],[99.403,15.038],[99.322,15.068],[99.286,14.992],[99.258,14.984],[99.131,15.046],[99.019,15.055],[98.985,15.181],[99.007,15.205],[99.056,15.442],[99.078,15.49],[99.049,15.554],[99.116,15.628],[99.133,15.783]]]},"properties":{"iso":"TH-61"}},{"type":"Feature","geometry":{"type":"Polygon","coordinates":[[[99.14,9.795],[99.03,9.73],[98.878,9.724],[98.778,9.681],[98.75,9.601],[98.662,9.655],[98.629,9.757],[98.721,9.893],[98.781,9.95],[98.813,9.936],[98.902,10.053],[98.846,10.061],[98.886,10.172],[98.9,10.29],[98.954,10.35],[98.903,10.424],[98.912,10.484],[98.969,10.537],[98.978,10.602],[98.904,10.695],[98.896,10.779],[99.011,10.857],[98.999,10.924],[99.024,10.971],[99.079,10.955],[99.143,11.03],[99.271,10.956],[99.404,10.954],[99.499,10.989],[99.496,10.926],[99.434,10.856],[99.401,10.746],[99.319,10.669],[99.278,10.551],[99.229,10.472],[99.284,10.412],[99.239,10.344],[99.185,10.371],[99.149,10.312],[99.221,10.227],[99.149,10.128],[99.172,10.041],[99.151,9.993],[99.166,9.859],[99.14,9.795]]]},"properties":{"iso":"TH-86"}},{"type":"Feature","geometry":{"type":"Polygon","coordinates":[[[104.244,16.433],[104.173,16.446],[104.047,16.397],[104.042,16.44],[103.921,16.444],[103.872,16.469],[103.804,16.457],[103.702,16.382],[103.755,16.271],[103.724,16.219],[103.511,16.198],[103.459,16.189],[103.42,16.281],[103.358,16.348],[103.276,16.378],[103.206,16.361],[103.175,16.495],[103.196,16.55],[103.163,16.643],[103.164,16.758],[103.195,16.831],[103.113,16.913],[103.144,16.958],[103.281,16.949],[103.398,16.905],[103.482,16.903],[103.506,17.045],[103.577,17.101],[103.65,17.044],[103.778,16.967],[103.794,16.891],[103.943,16.776],[104.021,16.857],[104.073,16.832],[104.187,16.665],[104.186,16.605],[104.241,16.521],[104.244,16.433]]]},"properties":{"iso":"TH-46"}},{"type":"Feature","geometry":{"type":"Polygon","coordinates":[[[99.904,16.688],[99.885,16.738],[99.932,16.786],[99.949,16.862],[100.032,16.891],[100.123,16.891],[100.128,16.969],[100.008,17.044],[99.929,17.119],[99.983,17.166],[100.005,17.18],[100.184,17.187],[100.251,17.231],[100.253,17.344],[100.448,17.425],[100.548,17.407],[100.691,17.524],[100.736,17.54],[100.862,17.698],[100.931,17.691],[100.987,17.748],[101.007,17.732],[100.968,17.572],[100.927,17.57],[100.882,17.467],[100.91,17.412],[100.906,17.327],[100.981,17.329],[101.095,17.216],[101.064,17.153],[101.047,17.017],[101.067,16.9],[101.029,16.901],[100.937,16.797],[100.893,16.791],[100.913,16.711],[100.837,16.596],[100.831,16.521],[100.668,16.347],[100.581,16.428],[100.559,16.523],[100.42,16.538],[100.343,16.521],[100.249,16.533],[100.215,16.597],[100.115,16.513],[100.032,16.496],[100.006,16.556],[99.918,16.583],[99.904,16.688]]]},"properties":{"iso":"TH-65"}},{"type":"Feature","geometry":{"type":"Polygon","coordinates":[[[98.75,9.601],[98.75,9.527],[98.654,9.419],[98.664,9.348],[98.552,9.354],[98.511,9.306],[98.426,9.358],[98.392,9.346],[98.43,9.441],[98.469,9.593],[98.558,9.729],[98.513,9.759],[98.521,9.843],[98.591,9.937],[98.57,9.958],[98.7,10.213],[98.755,10.393],[98.809,10.469],[98.808,10.589],[98.78,10.679],[98.863,10.779],[98.896,10.779],[98.904,10.695],[98.978,10.602],[98.969,10.537],[98.912,10.484],[98.903,10.424],[98.954,10.35],[98.9,10.29],[98.886,10.172],[98.846,10.061],[98.902,10.053],[98.813,9.936],[98.781,9.95],[98.721,9.893],[98.629,9.757],[98.662,9.655],[98.75,9.601]]]},"properties":{"iso":"TH-85"}},{"type":"Feature","geometry":{"type":"Polygon","coordinates":[[[102.688,16.987],[102.575,17.038],[102.52,17.1],[102.512,17.186],[102.541,17.261],[102.444,17.28],[102.446,17.339],[102.344,17.551],[102.327,17.681],[102.288,17.655],[102.193,17.659],[102.081,17.643],[102.034,17.68],[102.023,17.74],[102.051,17.826],[102.022,17.982],[102.058,18.088],[102.111,18.062],[102.153,17.992],[102.241,18.001],[102.327,17.95],[102.445,17.815],[102.466,17.756],[102.535,17.755],[102.611,17.69],[102.621,17.621],[102.678,17.594],[102.777,17.619],[102.784,17.656],[102.863,17.726],[102.848,17.807],[102.937,17.887],[102.989,17.82],[103.03,17.869],[103.099,17.86],[103.172,17.8],[103.192,17.841],[103.264,17.881],[103.316,17.83],[103.399,17.867],[103.377,17.753],[103.405,17.729],[103.39,17.596],[103.328,17.568],[103.27,17.431],[103.292,17.384],[103.246,17.316],[103.274,17.263],[103.402,17.217],[103.457,17.223],[103.584,17.166],[103.65,17.044],[103.577,17.101],[103.506,17.045],[103.482,16.903],[103.398,16.905],[103.281,16.949],[103.144,16.958],[103.113,16.913],[102.946,16.841],[102.832,16.876],[102.83,16.981],[102.758,17.032],[102.688,16.987]]]},"properties":{"iso":"TH-41"}},{"type":"Feature","geometry":{"type":"Polygon","coordinates":[[[103.399,17.867],[103.4,17.986],[103.476,18.011],[103.51,18.065],[103.588,18.043],[103.621,17.971],[103.895,17.845],[103.95,17.775],[104.01,17.801],[104.08,17.674],[104.03,17.635],[104.049,17.579],[104.009,17.476],[104.047,17.392],[104.134,17.381],[104.157,17.411],[104.31,17.422],[104.419,17.415],[104.443,17.237],[104.361,17.091],[104.392,17.014],[104.325,16.979],[104.246,16.899],[104.134,16.894],[104.073,16.832],[104.021,16.857],[103.943,16.776],[103.794,16.891],[103.778,16.967],[103.65,17.044],[103.584,17.166],[103.457,17.223],[103.402,17.217],[103.274,17.263],[103.246,17.316],[103.292,17.384],[103.27,17.431],[103.328,17.568],[103.39,17.596],[103.405,17.729],[103.377,17.753],[103.399,17.867]]]},"properties":{"iso":"TH-47"}},{"type":"Feature","geometry":{"type":"Polygon","coordinates":[[[100.407,19.736],[100.317,19.649],[100.217,19.636],[100.076,19.426],[100.004,19.429],[99.959,19.389],[99.922,19.458],[99.852,19.467],[99.687,19.43],[99.645,19.504],[99.587,19.469],[99.571,19.395],[99.582,19.296],[99.535,19.163],[99.535,19.083],[99.401,19],[99.323,19.12],[99.303,19.194],[99.344,19.264],[99.334,19.366],[99.294,19.494],[99.321,19.535],[99.263,19.649],[99.363,19.726],[99.414,19.84],[99.383,19.884],[99.453,19.976],[99.588,19.966],[99.592,20.008],[99.503,20.06],[99.564,20.111],[99.513,20.148],[99.564,20.206],[99.521,20.25],[99.52,20.361],[99.681,20.316],[99.73,20.35],[99.827,20.357],[99.862,20.443],[99.96,20.465],[100.06,20.396],[100.112,20.25],[100.213,20.313],[100.272,20.401],[100.331,20.398],[100.453,20.204],[100.507,20.151],[100.578,20.168],[100.552,20.031],[100.501,19.87],[100.442,19.836],[100.407,19.736]]]},"properties":{"iso":"TH-57"}},{"type":"Feature","geometry":{"type":"Polygon","coordinates":[[[99.089,15.887],[99.133,15.783],[99.116,15.628],[99.049,15.554],[99.078,15.49],[99.056,15.442],[99.007,15.205],[98.985,15.181],[98.961,15.229],[98.874,15.314],[98.645,15.638],[98.558,15.655],[98.548,15.685],[98.611,15.877],[98.584,15.918],[98.609,15.973],[98.561,16.032],[98.661,16.073],[98.699,16.136],[98.849,16.128],[98.856,16.225],[98.903,16.254],[98.932,16.329],[98.881,16.423],[98.828,16.413],[98.776,16.349],[98.671,16.285],[98.634,16.478],[98.579,16.567],[98.574,16.621],[98.512,16.649],[98.512,16.701],[98.463,16.73],[98.54,16.827],[98.532,16.9],[98.438,17.036],[98.338,17.051],[98.28,17.116],[98.28,17.168],[98.198,17.254],[98.113,17.319],[98.057,17.438],[97.993,17.51],[97.912,17.567],[98.116,17.645],[98.202,17.646],[98.302,17.696],[98.262,17.657],[98.258,17.586],[98.324,17.526],[98.311,17.398],[98.337,17.301],[98.417,17.248],[98.563,17.288],[98.567,17.406],[98.534,17.461],[98.551,17.551],[98.627,17.606],[98.611,17.666],[98.704,17.752],[98.747,17.688],[98.685,17.647],[98.706,17.487],[98.754,17.468],[98.829,17.512],[98.912,17.532],[98.938,17.469],[99.022,17.47],[99.039,17.384],[99.173,17.336],[99.224,17.399],[99.316,17.269],[99.313,17.141],[99.278,17.06],[99.267,16.959],[99.346,16.888],[99.298,16.787],[99.299,16.724],[99.243,16.627],[99.254,16.563],[99.114,16.475],[98.985,16.473],[99.022,16.427],[99.051,16.334],[99.049,16.257],[99.08,16.218],[99.069,16.132],[99.109,16.1],[99.076,15.961],[99.089,15.887]]]},"properties":{"iso":"TH-63"}},{"type":"Feature","geometry":{"type":"Polygon","coordinates":[[[100.328,13.804],[100.333,13.721],[100.244,13.674],[100.182,13.689],[100.07,13.652],[100.004,13.742],[99.947,13.745],[99.961,13.832],[99.931,13.933],[99.88,13.944],[99.828,13.996],[99.811,14.062],[99.873,14.062],[99.98,14.145],[100.161,14.14],[100.221,14.177],[100.28,14.126],[100.262,13.998],[100.276,13.913],[100.328,13.804]]]},"properties":{"iso":"TH-73"}},{"type":"Feature","geometry":{"type":"Polygon","coordinates":[[[98.912,17.532],[98.829,17.512],[98.754,17.468],[98.706,17.487],[98.685,17.647],[98.747,17.688],[98.704,17.752],[98.758,17.757],[98.839,17.715],[98.898,17.745],[98.911,17.82],[98.851,17.971],[98.799,18.021],[98.822,18.082],[98.786,18.249],[98.668,18.306],[98.71,18.414],[98.765,18.435],[98.929,18.541],[99.005,18.663],[99.177,18.707],[99.221,18.652],[99.215,18.596],[99.315,18.53],[99.26,18.495],[99.098,18.269],[99.014,18.25],[99.058,18.136],[99.091,17.953],[99.178,17.861],[99.165,17.811],[99.079,17.725],[99.05,17.614],[98.905,17.644],[98.88,17.611],[98.912,17.532]]]},"properties":{"iso":"TH-51"}},{"type":"Feature","geometry":{"type":"MultiPolygon","coordinates":[[[[102.376,11.999],[102.311,11.971],[102.267,12.133],[102.363,12.095],[102.376,11.999]]],[[[102.532,11.682],[102.609,11.645],[102.566,11.594],[102.532,11.682]]],[[[102.258,12.297],[102.344,12.335],[102.368,12.402],[102.326,12.525],[102.391,12.6],[102.392,12.667],[102.444,12.73],[102.506,12.751],[102.511,12.67],[102.645,12.611],[102.678,12.543],[102.765,12.457],[102.785,12.4],[102.726,12.364],[102.704,12.173],[102.77,12.074],[102.755,12.041],[102.663,12.121],[102.64,12.181],[102.56,12.183],[102.56,12.097],[102.464,12.16],[102.314,12.182],[102.258,12.297]]]]},"properties":{"iso":"TH-23"}},{"type":"Feature","geometry":{"type":"Polygon","coordinates":[[[99.859,13.328],[99.761,13.333],[99.703,13.312],[99.636,13.199],[99.418,13.192],[99.347,13.23],[99.321,13.166],[99.204,13.204],[99.192,13.323],[99.207,13.38],[99.187,13.497],[99.167,13.726],[99.258,13.769],[99.351,13.75],[99.471,13.801],[99.552,13.757],[99.592,13.796],[99.689,13.822],[99.806,13.815],[99.88,13.944],[99.931,13.933],[99.961,13.832],[99.947,13.745],[100.004,13.742],[100.07,13.652],[100.038,13.504],[99.912,13.506],[99.859,13.328]]]},"properties":{"iso":"TH-70"}},{"type":"Feature","geometry":{"type":"Polygon","coordinates":[[[104.129,15.564],[104.185,15.597],[104.162,15.688],[104.128,15.721],[104.134,15.8],[104.015,15.886],[104.026,15.981],[104.109,15.982],[104.098,16.079],[104.233,16.167],[104.272,16.237],[104.324,16.255],[104.356,16.323],[104.395,16.345],[104.509,16.337],[104.559,16.31],[104.637,16.211],[104.813,16.19],[104.806,16.156],[104.616,16.121],[104.563,16.079],[104.464,15.911],[104.425,15.725],[104.463,15.601],[104.52,15.559],[104.492,15.531],[104.403,15.529],[104.384,15.398],[104.443,15.345],[104.418,15.285],[104.353,15.337],[104.247,15.371],[104.155,15.495],[104.129,15.564]]]},"properties":{"iso":"TH-35"}},{"type":"Feature","geometry":{"type":"Polygon","coordinates":[[[100.113,18.808],[100.301,18.819],[100.34,18.807],[100.355,18.677],[100.407,18.63],[100.385,18.568],[100.413,18.488],[100.489,18.493],[100.542,18.417],[100.492,18.31],[100.452,18.151],[100.398,18.135],[100.413,18.019],[100.374,17.991],[100.344,17.893],[100.294,17.955],[100.228,17.931],[100.141,17.862],[100.004,17.834],[99.95,17.782],[99.896,17.804],[99.785,17.786],[99.743,17.725],[99.662,17.797],[99.55,17.807],[99.473,17.729],[99.381,17.677],[99.315,17.732],[99.366,17.773],[99.51,17.939],[99.588,18.001],[99.722,18.066],[99.761,18.146],[99.859,18.269],[99.914,18.293],[99.965,18.38],[100.005,18.405],[100.052,18.49],[100.062,18.553],[100.119,18.571],[100.1,18.63],[100.113,18.808]]]},"properties":{"iso":"TH-54"}},{"type":"Feature","geometry":{"type":"Polygon","coordinates":[[[100.842,6.302],[100.925,6.32],[100.924,6.407],[100.987,6.475],[101.03,6.477],[101.109,6.597],[101.101,6.638],[101.145,6.604],[101.234,6.602],[101.273,6.64],[101.33,6.55],[101.518,6.596],[101.556,6.543],[101.602,6.555],[101.543,6.444],[101.44,6.422],[101.414,6.316],[101.4,6.156],[101.479,6.067],[101.502,5.89],[101.397,5.872],[101.374,5.837],[101.276,5.812],[101.26,5.712],[101.137,5.613],[101.083,5.72],[100.989,5.784],[101.037,5.918],[101.102,5.951],[101.119,6.115],[101.059,6.142],[101.127,6.193],[101.095,6.26],[101.032,6.244],[100.947,6.264],[100.904,6.234],[100.842,6.302]]]},"properties":{"iso":"TH-95"}},{"type":"Feature","geometry":{"type":"Polygon","coordinates":[[[99.983,17.166],[99.969,17.248],[100.011,17.3],[100.037,17.436],[99.928,17.571],[99.973,17.62],[99.969,17.705],[99.896,17.804],[99.95,17.782],[100.004,17.834],[100.141,17.862],[100.228,17.931],[100.294,17.955],[100.344,17.893],[100.374,17.991],[100.413,18.019],[100.544,18.016],[100.61,18.05],[100.693,18.024],[100.773,18.027],[100.846,18.081],[100.914,18.159],[100.919,18.242],[101.086,18.38],[101.182,18.341],[101.144,18.259],[101.193,18.213],[101.161,18.124],[101.184,18.065],[101.122,18],[101.117,17.951],[101.019,17.891],[101.028,17.829],[100.987,17.748],[100.931,17.691],[100.862,17.698],[100.736,17.54],[100.691,17.524],[100.548,17.407],[100.448,17.425],[100.253,17.344],[100.251,17.231],[100.184,17.187],[100.005,17.18],[99.983,17.166]]]},"properties":{"iso":"TH-53"}},{"type":"Feature","geometry":{"type":"Polygon","coordinates":[[[103.111,15.481],[103.09,15.419],[103.146,15.402],[103.222,15.324],[103.293,15.3],[103.328,15.337],[103.403,15.309],[103.444,15.344],[103.501,15.295],[103.444,15.263],[103.424,15.13],[103.448,15.046],[103.421,15.024],[103.426,14.929],[103.312,14.814],[103.251,14.618],[103.23,14.592],[103.257,14.454],[103.243,14.337],[103.175,14.336],[103.079,14.294],[103.022,14.229],[102.936,14.168],[102.824,14.167],[102.722,14.132],[102.594,14.149],[102.583,14.204],[102.617,14.269],[102.559,14.455],[102.498,14.501],[102.484,14.572],[102.51,14.655],[102.482,14.754],[102.444,14.807],[102.579,14.822],[102.547,14.895],[102.56,14.937],[102.707,14.952],[102.761,14.992],[102.777,15.072],[102.859,15.158],[102.981,15.187],[102.978,15.424],[102.943,15.504],[102.827,15.511],[102.798,15.547],[102.789,15.639],[102.834,15.622],[102.889,15.67],[102.892,15.753],[102.946,15.789],[103.008,15.701],[102.973,15.668],[103.087,15.538],[103.111,15.481]]]},"properties":{"iso":"TH-31"}},{"type":"Feature","geometry":{"type":"Polygon","coordinates":[[[99.994,16.338],[99.952,16.296],[99.947,16.227],[99.896,16.081],[99.828,16.022],[99.761,15.921],[99.731,15.826],[99.656,15.789],[99.614,15.881],[99.537,15.925],[99.477,15.902],[99.358,15.927],[99.281,15.898],[99.196,15.94],[99.089,15.887],[99.076,15.961],[99.109,16.1],[99.069,16.132],[99.08,16.218],[99.049,16.257],[99.051,16.334],[99.022,16.427],[98.985,16.473],[99.114,16.475],[99.254,16.563],[99.243,16.627],[99.299,16.724],[99.298,16.787],[99.346,16.888],[99.375,16.865],[99.495,16.889],[99.555,16.815],[99.674,16.74],[99.858,16.735],[99.904,16.688],[99.918,16.583],[100.006,16.556],[100.032,16.496],[99.977,16.37],[99.994,16.338]]]},"properties":{"iso":"TH-62"}},{"type":"Feature","geometry":{"type":"Polygon","coordinates":[[[99.687,19.43],[99.709,19.339],[99.706,19.24],[99.783,19.057],[99.83,19.009],[99.929,18.97],[99.993,18.909],[100.04,18.898],[100.113,18.808],[100.1,18.63],[100.119,18.571],[100.062,18.553],[100.052,18.49],[100.005,18.405],[99.965,18.38],[99.914,18.293],[99.859,18.269],[99.761,18.146],[99.722,18.066],[99.588,18.001],[99.51,17.939],[99.366,17.773],[99.315,17.732],[99.381,17.677],[99.473,17.729],[99.478,17.675],[99.44,17.527],[99.409,17.468],[99.472,17.366],[99.444,17.228],[99.394,17.202],[99.316,17.269],[99.224,17.399],[99.173,17.336],[99.039,17.384],[99.022,17.47],[98.938,17.469],[98.912,17.532],[98.88,17.611],[98.905,17.644],[99.05,17.614],[99.079,17.725],[99.165,17.811],[99.178,17.861],[99.091,17.953],[99.058,18.136],[99.014,18.25],[99.098,18.269],[99.26,18.495],[99.315,18.53],[99.352,18.616],[99.33,18.686],[99.367,18.762],[99.35,18.836],[99.386,18.87],[99.374,18.985],[99.401,19],[99.535,19.083],[99.535,19.163],[99.582,19.296],[99.571,19.395],[99.587,19.469],[99.645,19.504],[99.687,19.43]]]},"properties":{"iso":"TH-52"}},{"type":"Feature","geometry":{"type":"Polygon","coordinates":[[[100.568,13.951],[100.544,13.85],[100.501,13.801],[100.328,13.804],[100.276,13.913],[100.262,13.998],[100.28,14.126],[100.345,14.117],[100.355,14.003],[100.462,13.972],[100.502,13.936],[100.568,13.951]]]},"properties":{"iso":"TH-12"}},{"type":"Feature","geometry":{"type":"Polygon","coordinates":[[[103.4,17.986],[103.259,18.262],[103.298,18.304],[103.244,18.364],[103.313,18.434],[103.406,18.449],[103.457,18.425],[103.61,18.403],[103.69,18.347],[103.794,18.343],[103.858,18.284],[103.973,18.337],[104.061,18.219],[104.105,18.115],[104.188,18.025],[104.124,18],[104.133,17.902],[104.103,17.861],[104.032,17.935],[103.986,17.865],[104.01,17.801],[103.95,17.775],[103.895,17.845],[103.621,17.971],[103.588,18.043],[103.51,18.065],[103.476,18.011],[103.4,17.986]]]},"properties":{"iso":"TH-38"}},{"type":"Feature","geometry":{"type":"Polygon","coordinates":[[[101.502,5.89],[101.479,6.067],[101.4,6.156],[101.414,6.316],[101.44,6.422],[101.543,6.444],[101.602,6.555],[101.633,6.636],[101.68,6.574],[101.727,6.575],[101.815,6.453],[101.874,6.425],[101.942,6.347],[102.077,6.252],[102.093,6.146],[102.054,6.08],[101.948,5.991],[101.944,5.872],[101.836,5.789],[101.812,5.741],[101.754,5.797],[101.714,5.763],[101.658,5.813],[101.588,5.93],[101.502,5.89]]]},"properties":{"iso":"TH-96"}},{"type":"Feature","geometry":{"type":"Polygon","coordinates":[[[104.907,14.399],[104.861,14.522],[104.831,14.552],[104.85,14.633],[104.887,14.661],[104.816,14.812],[104.814,14.892],[104.698,14.957],[104.688,15.137],[104.737,15.168],[104.674,15.251],[104.584,15.241],[104.468,15.259],[104.418,15.285],[104.443,15.345],[104.384,15.398],[104.403,15.529],[104.492,15.531],[104.52,15.559],[104.582,15.604],[104.636,15.688],[104.74,15.656],[104.859,15.575],[104.928,15.607],[104.892,15.653],[104.903,15.758],[104.958,15.791],[104.965,15.858],[105.023,15.977],[105.005,16.02],[105.06,16.098],[105.211,16.05],[105.408,16.016],[105.342,15.922],[105.39,15.809],[105.435,15.754],[105.496,15.766],[105.601,15.72],[105.635,15.663],[105.625,15.563],[105.593,15.51],[105.589,15.42],[105.494,15.386],[105.508,15.318],[105.575,15.329],[105.591,15.271],[105.54,15.252],[105.476,15.18],[105.48,15.1],[105.547,15.038],[105.595,14.962],[105.579,14.892],[105.523,14.825],[105.512,14.754],[105.529,14.595],[105.508,14.523],[105.43,14.425],[105.32,14.397],[105.234,14.337],[105.176,14.346],[105.147,14.242],[105.05,14.215],[104.984,14.318],[104.972,14.392],[104.907,14.399]]]},"properties":{"iso":"TH-34"}},{"type":"Feature","geometry":{"type":"Polygon","coordinates":[[[99.44,12.581],[99.522,12.586],[99.618,12.542],[99.679,12.579],[99.752,12.578],[99.821,12.63],[99.956,12.634],[99.999,12.341],[99.975,12.265],[100.016,12.2],[99.942,12.081],[99.853,11.979],[99.812,11.88],[99.789,11.744],[99.731,11.689],[99.639,11.518],[99.554,11.315],[99.563,11.202],[99.5,11.17],[99.487,11.114],[99.499,10.989],[99.404,10.954],[99.271,10.956],[99.143,11.03],[99.228,11.112],[99.264,11.215],[99.325,11.282],[99.312,11.316],[99.402,11.389],[99.394,11.461],[99.474,11.533],[99.468,11.615],[99.565,11.627],[99.636,11.727],[99.648,11.803],[99.579,11.903],[99.592,11.993],[99.538,12.014],[99.565,12.145],[99.495,12.19],[99.434,12.343],[99.422,12.552],[99.44,12.581]]]},"properties":{"iso":"TH-77"}},{"type":"Feature","geometry":{"type":"Polygon","coordinates":[[[101.101,6.638],[101.109,6.597],[101.03,6.477],[100.987,6.475],[100.924,6.407],[100.925,6.32],[100.842,6.302],[100.813,6.442],[100.739,6.491],[100.652,6.443],[100.496,6.521],[100.36,6.548],[100.316,6.604],[100.29,6.691],[100.205,6.726],[100.192,6.786],[100.22,6.865],[100.196,6.904],[100.122,6.929],[100.081,6.975],[100.046,7.063],[100.031,7.092],[100.13,7.169],[100.283,7.205],[100.333,7.242],[100.405,7.375],[100.395,7.493],[100.341,7.525],[100.26,7.496],[100.204,7.771],[100.129,7.802],[100.146,7.869],[100.272,7.924],[100.336,7.931],[100.426,7.547],[100.467,7.412],[100.536,7.271],[100.623,7.182],[100.733,7.021],[100.81,6.954],[100.849,6.962],[100.935,6.889],[101.056,6.854],[101.036,6.747],[101.059,6.66],[101.101,6.638]]]},"properties":{"iso":"TH-90"}},{"type":"Feature","geometry":{"type":"Polygon","coordinates":[[[98.437,8.093],[98.393,7.979],[98.422,7.904],[98.397,7.838],[98.303,7.778],[98.272,7.926],[98.292,8.001],[98.276,8.079],[98.339,8.168],[98.386,8.085],[98.437,8.093]]]},"properties":{"iso":"TH-83"}},{"type":"Feature","geometry":{"type":"Polygon","coordinates":[[[100.232,14.789],[100.357,14.767],[100.477,14.725],[100.516,14.686],[100.503,14.457],[100.424,14.454],[100.414,14.51],[100.254,14.486],[100.195,14.562],[100.232,14.789]]]},"properties":{"iso":"TH-15"}},{"type":"Feature","geometry":{"type":"Polygon","coordinates":[[[103.511,16.198],[103.469,16.118],[103.497,15.927],[103.46,15.841],[103.44,15.717],[103.354,15.702],[103.298,15.596],[103.38,15.525],[103.443,15.508],[103.405,15.437],[103.343,15.409],[103.111,15.481],[103.087,15.538],[102.973,15.668],[103.008,15.701],[102.946,15.789],[102.905,15.929],[102.914,15.991],[102.857,16.08],[102.87,16.109],[102.848,16.261],[102.956,16.397],[102.948,16.449],[103.089,16.511],[103.161,16.609],[103.163,16.643],[103.196,16.55],[103.175,16.495],[103.206,16.361],[103.276,16.378],[103.358,16.348],[103.42,16.281],[103.459,16.189],[103.511,16.198]]]},"properties":{"iso":"TH-44"}},{"type":"Feature","geometry":{"type":"Polygon","coordinates":[[[100.031,7.092],[100.046,7.063],[99.999,7.06],[99.918,7.139],[99.857,7.072],[99.811,7.146],[99.734,7.129],[99.585,7.147],[99.558,7.209],[99.471,7.285],[99.392,7.315],[99.349,7.402],[99.315,7.538],[99.26,7.657],[99.34,7.751],[99.292,7.847],[99.338,7.943],[99.407,7.887],[99.511,7.871],[99.606,7.98],[99.727,7.993],[99.744,7.851],[99.82,7.653],[99.796,7.595],[99.944,7.296],[99.967,7.17],[100.031,7.092]]]},"properties":{"iso":"TH-92"}},{"type":"Feature","geometry":{"type":"Polygon","coordinates":[[[99.286,14.992],[99.322,15.068],[99.403,15.038],[99.436,14.989],[99.51,14.984],[99.632,14.938],[99.648,14.994],[99.726,14.961],[99.879,14.919],[100.024,14.912],[100.04,14.955],[100.146,14.921],[100.211,14.955],[100.232,14.789],[100.195,14.562],[100.254,14.486],[100.284,14.396],[100.221,14.177],[100.161,14.14],[99.98,14.145],[99.873,14.062],[99.811,14.062],[99.763,14.165],[99.819,14.22],[99.829,14.524],[99.886,14.55],[99.844,14.658],[99.784,14.677],[99.678,14.794],[99.544,14.797],[99.499,14.697],[99.371,14.766],[99.328,14.829],[99.313,14.967],[99.286,14.992]]]},"properties":{"iso":"TH-72"}},{"type":"Feature","geometry":{"type":"Polygon","coordinates":[[[100.309,15.167],[100.349,15.155],[100.376,15.084],[100.443,15.06],[100.461,14.973],[100.435,14.93],[100.475,14.841],[100.477,14.725],[100.357,14.767],[100.232,14.789],[100.211,14.955],[100.261,14.95],[100.305,14.996],[100.278,15.106],[100.309,15.167]]]},"properties":{"iso":"TH-17"}},{"type":"Feature","geometry":{"type":"Polygon","coordinates":[[[99.952,13.29],[99.855,13.269],[99.859,13.328],[99.912,13.506],[100.038,13.504],[100.088,13.428],[99.952,13.29]]]},"properties":{"iso":"TH-75"}},{"type":"Feature","geometry":{"type":"Polygon","coordinates":[[[101.692,13.134],[101.747,12.95],[101.786,12.951],[101.831,12.838],[101.785,12.693],[101.724,12.705],[101.634,12.643],[101.474,12.633],[101.413,12.594],[101.287,12.654],[101.117,12.678],[100.991,12.656],[101.002,12.794],[101.091,12.896],[101.104,13.032],[101.156,13.017],[101.193,13.079],[101.276,13.046],[101.323,13.072],[101.39,13.017],[101.496,13.065],[101.554,13.069],[101.638,13.153],[101.692,13.134]]]},"properties":{"iso":"TH-21"}},{"type":"Feature","geometry":{"type":"Polygon","coordinates":[[[101.988,13.587],[101.916,13.586],[101.869,13.726],[101.814,13.721],[101.749,13.804],[101.679,13.752],[101.594,13.785],[101.545,13.776],[101.397,13.847],[101.221,13.878],[101.165,13.851],[101.14,13.968],[101.222,14.055],[101.327,14.068],[101.297,14.148],[101.388,14.219],[101.392,14.262],[101.501,14.266],[101.516,14.311],[101.409,14.425],[101.483,14.462],[101.541,14.426],[101.632,14.427],[101.751,14.313],[101.764,14.349],[101.87,14.365],[101.986,14.352],[101.96,14.256],[102.12,14.144],[101.988,13.587]]]},"properties":{"iso":"TH-25"}},{"type":"Feature","geometry":{"type":"Polygon","coordinates":[[[100.594,14.656],[100.571,14.603],[100.598,14.554],[100.769,14.565],[100.762,14.41],[100.821,14.315],[100.823,14.246],[100.606,14.135],[100.489,14.109],[100.345,14.117],[100.28,14.126],[100.221,14.177],[100.284,14.396],[100.254,14.486],[100.414,14.51],[100.424,14.454],[100.503,14.457],[100.516,14.686],[100.594,14.656]]]},"properties":{"iso":"TH-14"}},{"type":"Feature","geometry":{"type":"Polygon","coordinates":[[[100.755,15.931],[100.602,15.952],[100.506,15.925],[100.414,15.923],[100.315,15.945],[100.293,15.914],[100.168,15.956],[100.086,16.151],[100.027,16.217],[100.034,16.258],[99.994,16.338],[99.977,16.37],[100.032,16.496],[100.115,16.513],[100.215,16.597],[100.249,16.533],[100.343,16.521],[100.42,16.538],[100.559,16.523],[100.581,16.428],[100.668,16.347],[100.699,16.25],[100.646,16.172],[100.629,16.048],[100.693,16.035],[100.773,15.978],[100.755,15.931]]]},"properties":{"iso":"TH-66"}},{"type":"Feature","geometry":{"type":"Polygon","coordinates":[[[100.129,7.802],[100.204,7.771],[100.26,7.496],[100.341,7.525],[100.395,7.493],[100.405,7.375],[100.333,7.242],[100.283,7.205],[100.13,7.169],[100.031,7.092],[99.967,7.17],[99.944,7.296],[99.796,7.595],[99.82,7.653],[99.744,7.851],[99.812,7.887],[99.952,7.906],[100.009,7.879],[100.051,7.817],[100.129,7.802]]]},"properties":{"iso":"TH-93"}},{"type":"Feature","geometry":{"type":"MultiPolygon","coordinates":[[[[98.271,8.871],[98.249,8.913],[98.265,9.015],[98.323,8.988],[98.271,8.871]]],[[[98.511,9.306],[98.533,9.237],[98.49,9.141],[98.481,9.064],[98.517,8.986],[98.457,8.955],[98.458,8.884],[98.505,8.876],[98.609,8.783],[98.604,8.715],[98.547,8.652],[98.591,8.623],[98.713,8.625],[98.659,8.55],[98.671,8.459],[98.634,8.375],[98.512,8.328],[98.461,8.289],[98.468,8.22],[98.436,8.163],[98.282,8.204],[98.253,8.376],[98.205,8.553],[98.247,8.654],[98.236,8.714],[98.266,8.841],[98.305,8.94],[98.361,9.001],[98.318,9.033],[98.354,9.098],[98.321,9.213],[98.392,9.346],[98.426,9.358],[98.511,9.306]]],[[[98.332,9.084],[98.303,9.038],[98.247,9.032],[98.249,9.126],[98.291,9.165],[98.332,9.084]]]]},"properties":{"iso":"TH-82"}},{"type":"Feature","geometry":{"type":"Polygon","coordinates":[[[101.602,6.555],[101.556,6.543],[101.518,6.596],[101.33,6.55],[101.273,6.64],[101.234,6.602],[101.145,6.604],[101.101,6.638],[101.059,6.66],[101.036,6.747],[101.056,6.854],[101.163,6.86],[101.263,6.903],[101.329,6.873],[101.354,6.906],[101.558,6.846],[101.727,6.575],[101.68,6.574],[101.633,6.636],[101.602,6.555]]]},"properties":{"iso":"TH-94"}},{"type":"Feature","geometry":{"type":"Polygon","coordinates":[[[100.914,13.961],[100.914,13.946],[100.687,13.916],[100.568,13.951],[100.502,13.936],[100.462,13.972],[100.355,14.003],[100.345,14.117],[100.489,14.109],[100.606,14.135],[100.823,14.246],[100.892,14.276],[100.952,14.272],[100.914,14.222],[100.914,13.961]]]},"properties":{"iso":"TH-13"}},{"type":"Feature","geometry":{"type":"Polygon","coordinates":[[[99.266,8.341],[99.24,8.39],[99.288,8.484],[99.415,8.569],[99.493,8.672],[99.529,8.756],[99.527,8.846],[99.583,8.91],[99.694,8.93],[99.777,9.048],[99.772,9.111],[99.729,9.155],[99.768,9.322],[99.879,9.219],[99.88,9.128],[99.909,9.099],[99.917,8.894],[99.954,8.627],[100.003,8.585],[100.079,8.429],[100.138,8.389],[100.17,8.502],[100.215,8.441],[100.293,8.181],[100.336,7.931],[100.272,7.924],[100.146,7.869],[100.129,7.802],[100.051,7.817],[100.009,7.879],[99.952,7.906],[99.812,7.887],[99.744,7.851],[99.727,7.993],[99.606,7.98],[99.511,7.871],[99.407,7.887],[99.338,7.943],[99.348,7.993],[99.284,8.101],[99.318,8.201],[99.316,8.293],[99.266,8.341]]]},"properties":{"iso":"TH-80"}},{"type":"Feature","geometry":{"type":"Polygon","coordinates":[[[101.14,13.968],[101.044,13.977],[100.914,13.961],[100.914,14.222],[100.952,14.272],[101.041,14.325],[101.081,14.384],[101.161,14.347],[101.209,14.375],[101.243,14.48],[101.277,14.506],[101.409,14.425],[101.516,14.311],[101.501,14.266],[101.392,14.262],[101.388,14.219],[101.297,14.148],[101.327,14.068],[101.222,14.055],[101.14,13.968]]]},"properties":{"iso":"TH-26"}},{"type":"Feature","geometry":{"type":"Polygon","coordinates":[[[104.356,16.323],[104.328,16.329],[104.319,16.455],[104.244,16.433],[104.241,16.521],[104.186,16.605],[104.187,16.665],[104.073,16.832],[104.134,16.894],[104.246,16.899],[104.737,16.805],[104.762,16.69],[104.733,16.564],[104.773,16.495],[104.83,16.465],[104.903,16.338],[104.978,16.279],[104.889,16.211],[104.813,16.19],[104.637,16.211],[104.559,16.31],[104.509,16.337],[104.395,16.345],[104.356,16.323]]]},"properties":{"iso":"TH-49"}},{"type":"Feature","geometry":{"type":"Polygon","coordinates":[[[100.443,15.06],[100.489,15.164],[100.563,15.271],[100.743,15.435],[100.739,15.497],[100.88,15.465],[100.974,15.483],[101.122,15.396],[101.24,15.397],[101.256,15.336],[101.3,15.302],[101.279,15.244],[101.275,15.092],[101.379,15.064],[101.41,15],[101.092,14.852],[101.031,14.842],[100.951,14.747],[100.821,14.803],[100.741,14.781],[100.612,14.699],[100.594,14.656],[100.516,14.686],[100.477,14.725],[100.475,14.841],[100.435,14.93],[100.461,14.973],[100.443,15.06]]]},"properties":{"iso":"TH-16"}},{"type":"Feature","geometry":{"type":"Polygon","coordinates":[[[98.713,8.625],[98.75,8.669],[98.852,8.642],[98.929,8.561],[98.884,8.515],[98.899,8.349],[99.006,8.315],[99.067,8.355],[99.207,8.322],[99.266,8.341],[99.316,8.293],[99.318,8.201],[99.284,8.101],[99.348,7.993],[99.338,7.943],[99.292,7.847],[99.34,7.751],[99.26,7.657],[99.177,7.705],[99.04,7.703],[99.023,7.828],[99.066,7.869],[98.973,7.933],[98.92,8.061],[98.835,8.008],[98.741,8.078],[98.752,8.184],[98.702,8.312],[98.625,8.291],[98.634,8.375],[98.671,8.459],[98.659,8.55],[98.713,8.625]]]},"properties":{"iso":"TH-81"}},{"type":"Feature","geometry":{"type":"Polygon","coordinates":[[[100.974,13.464],[101.018,13.474],[101.06,13.55],[101.157,13.589],[101.297,13.539],[101.366,13.455],[101.441,13.413],[101.534,13.391],[101.562,13.332],[101.683,13.248],[101.717,13.172],[101.692,13.134],[101.638,13.153],[101.554,13.069],[101.496,13.065],[101.39,13.017],[101.323,13.072],[101.276,13.046],[101.193,13.079],[101.156,13.017],[101.104,13.032],[101.091,12.896],[101.002,12.794],[100.991,12.656],[100.861,12.653],[100.834,12.713],[100.913,12.807],[100.856,12.91],[100.921,12.99],[100.872,13.083],[100.936,13.203],[100.903,13.298],[100.97,13.352],[100.974,13.464]]]},"properties":{"iso":"TH-20"}},{"type":"Feature","geometry":{"type":"Polygon","coordinates":[[[99.513,20.148],[99.564,20.111],[99.503,20.06],[99.592,20.008],[99.588,19.966],[99.453,19.976],[99.383,19.884],[99.414,19.84],[99.363,19.726],[99.263,19.649],[99.321,19.535],[99.294,19.494],[99.334,19.366],[99.344,19.264],[99.303,19.194],[99.323,19.12],[99.401,19],[99.374,18.985],[99.386,18.87],[99.35,18.836],[99.367,18.762],[99.33,18.686],[99.352,18.616],[99.315,18.53],[99.215,18.596],[99.221,18.652],[99.177,18.707],[99.005,18.663],[98.929,18.541],[98.765,18.435],[98.71,18.414],[98.668,18.306],[98.786,18.249],[98.822,18.082],[98.799,18.021],[98.851,17.971],[98.911,17.82],[98.898,17.745],[98.839,17.715],[98.758,17.757],[98.704,17.752],[98.611,17.666],[98.627,17.606],[98.551,17.551],[98.534,17.461],[98.567,17.406],[98.563,17.288],[98.417,17.248],[98.337,17.301],[98.311,17.398],[98.324,17.526],[98.258,17.586],[98.262,17.657],[98.302,17.696],[98.24,17.718],[98.211,17.771],[98.244,17.821],[98.086,17.997],[98.13,18.1],[98.091,18.237],[98.121,18.311],[98.107,18.36],[98.167,18.436],[98.115,18.536],[98.1,18.774],[98.081,18.824],[98.124,18.93],[98.116,19.081],[98.156,19.148],[98.247,19.142],[98.336,19.035],[98.533,19.026],[98.649,19.067],[98.65,19.127],[98.587,19.205],[98.608,19.235],[98.609,19.475],[98.576,19.514],[98.551,19.609],[98.467,19.693],[98.608,19.709],[98.672,19.752],[98.779,19.753],[98.85,19.808],[98.898,19.766],[98.987,19.74],[99.034,19.856],[99.032,19.974],[99.077,20.101],[99.159,20.133],[99.438,20.091],[99.513,20.148]]]},"properties":{"iso":"TH-50"}},{"type":"Feature","geometry":{"type":"Polygon","coordinates":[[[100.058,15.42],[100.124,15.418],[100.216,15.35],[100.292,15.223],[100.309,15.167],[100.278,15.106],[100.305,14.996],[100.261,14.95],[100.211,14.955],[100.146,14.921],[100.04,14.955],[100.024,14.912],[99.879,14.919],[99.726,14.961],[99.737,15.016],[99.809,15.076],[99.754,15.163],[99.716,15.274],[99.765,15.317],[99.888,15.284],[100,15.294],[100.046,15.278],[100.07,15.343],[100.058,15.42]]]},"properties":{"iso":"TH-18"}},{"type":"Feature","geometry":{"type":"Polygon","coordinates":[[[104.52,15.559],[104.463,15.601],[104.425,15.725],[104.464,15.911],[104.563,16.079],[104.616,16.121],[104.806,16.156],[104.813,16.19],[104.889,16.211],[104.978,16.279],[105.06,16.098],[105.005,16.02],[105.023,15.977],[104.965,15.858],[104.958,15.791],[104.903,15.758],[104.892,15.653],[104.928,15.607],[104.859,15.575],[104.74,15.656],[104.636,15.688],[104.582,15.604],[104.52,15.559]]]},"properties":{"iso":"TH-37"}},{"type":"Feature","geometry":{"type":"Polygon","coordinates":[[[100.333,13.721],[100.409,13.493],[100.251,13.475],[100.088,13.428],[100.038,13.504],[100.07,13.652],[100.182,13.689],[100.244,13.674],[100.333,13.721]]]},"properties":{"iso":"TH-74"}},{"type":"Feature","geometry":{"type":"Polygon","coordinates":[[[100.861,13.697],[100.956,13.662],[100.959,13.632],[100.849,13.479],[100.632,13.52],[100.453,13.504],[100.454,13.606],[100.521,13.605],[100.518,13.667],[100.636,13.649],[100.698,13.656],[100.71,13.717],[100.861,13.697]]]},"properties":{"iso":"TH-11"}},{"type":"Feature","geometry":{"type":"Polygon","coordinates":[[[100.34,18.807],[100.405,18.945],[100.472,19.047],[100.551,19.065],[100.619,19.145],[100.595,19.25],[100.603,19.333],[100.527,19.349],[100.518,19.404],[100.572,19.468],[100.484,19.488],[100.483,19.548],[100.58,19.499],[100.652,19.556],[100.779,19.493],[100.883,19.606],[101.035,19.629],[101.123,19.572],[101.281,19.582],[101.266,19.47],[101.214,19.476],[101.187,19.398],[101.26,19.231],[101.266,19.117],[101.355,19.046],[101.293,18.981],[101.246,18.889],[101.258,18.809],[101.236,18.741],[101.273,18.689],[101.183,18.561],[101.104,18.521],[101.053,18.425],[101.086,18.38],[100.919,18.242],[100.914,18.159],[100.846,18.081],[100.773,18.027],[100.693,18.024],[100.61,18.05],[100.544,18.016],[100.413,18.019],[100.398,18.135],[100.452,18.151],[100.492,18.31],[100.542,18.417],[100.489,18.493],[100.413,18.488],[100.385,18.568],[100.407,18.63],[100.355,18.677],[100.34,18.807]]]},"properties":{"iso":"TH-55"}},{"type":"Feature","geometry":{"type":"Polygon","coordinates":[[[101.717,13.172],[101.77,13.181],[101.995,13.336],[102.035,13.266],[102.034,13.167],[102.28,13.23],[102.353,13.297],[102.393,13.177],[102.502,12.992],[102.486,12.948],[102.529,12.818],[102.506,12.751],[102.444,12.73],[102.392,12.667],[102.391,12.6],[102.326,12.525],[102.368,12.402],[102.344,12.335],[102.258,12.297],[102.093,12.462],[101.997,12.536],[101.929,12.536],[101.902,12.601],[101.785,12.693],[101.831,12.838],[101.786,12.951],[101.747,12.95],[101.692,13.134],[101.717,13.172]]]},"properties":{"iso":"TH-22"}},{"type":"Feature","geometry":{"type":"Polygon","coordinates":[[[104.246,16.899],[104.325,16.979],[104.392,17.014],[104.361,17.091],[104.443,17.237],[104.419,17.415],[104.31,17.422],[104.157,17.411],[104.134,17.381],[104.047,17.392],[104.009,17.476],[104.049,17.579],[104.03,17.635],[104.08,17.674],[104.01,17.801],[103.986,17.865],[104.032,17.935],[104.103,17.861],[104.133,17.902],[104.124,18],[104.188,18.025],[104.225,17.98],[104.273,17.866],[104.355,17.823],[104.472,17.652],[104.708,17.521],[104.8,17.395],[104.801,17.165],[104.73,17.008],[104.759,16.844],[104.737,16.805],[104.246,16.899]]]},"properties":{"iso":"TH-48"}},{"type":"Feature","geometry":{"type":"Polygon","coordinates":[[[98.985,15.181],[99.019,15.055],[99.131,15.046],[99.258,14.984],[99.286,14.992],[99.313,14.967],[99.328,14.829],[99.371,14.766],[99.499,14.697],[99.544,14.797],[99.678,14.794],[99.784,14.677],[99.844,14.658],[99.886,14.55],[99.829,14.524],[99.819,14.22],[99.763,14.165],[99.811,14.062],[99.828,13.996],[99.88,13.944],[99.806,13.815],[99.689,13.822],[99.592,13.796],[99.552,13.757],[99.471,13.801],[99.351,13.75],[99.258,13.769],[99.167,13.726],[99.121,13.773],[99.108,13.893],[99.021,13.946],[98.969,14.08],[98.879,14.123],[98.597,14.328],[98.492,14.541],[98.433,14.614],[98.324,14.71],[98.254,14.814],[98.251,14.916],[98.208,14.985],[98.231,15.044],[98.184,15.096],[98.213,15.182],[98.3,15.275],[98.394,15.263],[98.394,15.343],[98.49,15.394],[98.58,15.376],[98.585,15.471],[98.553,15.602],[98.558,15.655],[98.645,15.638],[98.874,15.314],[98.961,15.229],[98.985,15.181]]]},"properties":{"iso":"TH-71"}},{"type":"Feature","geometry":{"type":"Polygon","coordinates":[[[98.302,17.696],[98.202,17.646],[98.116,17.645],[97.912,17.567],[97.794,17.679],[97.775,17.751],[97.703,17.816],[97.672,17.882],[97.736,17.987],[97.677,18.115],[97.676,18.162],[97.614,18.225],[97.639,18.288],[97.551,18.334],[97.502,18.267],[97.444,18.34],[97.387,18.505],[97.444,18.495],[97.605,18.537],[97.651,18.577],[97.751,18.576],[97.774,18.689],[97.737,18.887],[97.692,18.949],[97.738,18.979],[97.764,19.066],[97.836,19.093],[97.842,19.225],[97.809,19.253],[97.825,19.324],[97.803,19.405],[97.873,19.496],[97.862,19.576],[97.975,19.602],[98.026,19.637],[98.034,19.806],[98.135,19.788],[98.249,19.676],[98.323,19.699],[98.467,19.693],[98.551,19.609],[98.576,19.514],[98.609,19.475],[98.608,19.235],[98.587,19.205],[98.65,19.127],[98.649,19.067],[98.533,19.026],[98.336,19.035],[98.247,19.142],[98.156,19.148],[98.116,19.081],[98.124,18.93],[98.081,18.824],[98.1,18.774],[98.115,18.536],[98.167,18.436],[98.107,18.36],[98.121,18.311],[98.091,18.237],[98.13,18.1],[98.086,17.997],[98.244,17.821],[98.211,17.771],[98.24,17.718],[98.302,17.696]]]},"properties":{"iso":"TH-58"}},{"type":"Feature","geometry":{"type":"Polygon","coordinates":[[[101.995,13.336],[101.946,13.482],[101.998,13.5],[101.988,13.587],[102.12,14.144],[102.303,14.128],[102.427,14.157],[102.539,14.121],[102.594,14.149],[102.722,14.132],[102.824,14.167],[102.936,14.168],[102.901,14.083],[102.908,14.017],[102.783,13.933],[102.766,13.856],[102.689,13.752],[102.563,13.684],[102.57,13.586],[102.439,13.56],[102.367,13.578],[102.345,13.347],[102.353,13.297],[102.28,13.23],[102.034,13.167],[102.035,13.266],[101.995,13.336]]]},"properties":{"iso":"TH-27"}},{"type":"Feature","geometry":{"type":"MultiPolygon","coordinates":[[[[99.694,6.532],[99.66,6.505],[99.597,6.597],[99.639,6.677],[99.678,6.626],[99.694,6.532]]],[[[100.046,7.063],[100.081,6.975],[100.122,6.929],[100.196,6.904],[100.22,6.865],[100.192,6.786],[100.205,6.726],[100.154,6.557],[100.053,6.519],[100.005,6.565],[99.904,6.722],[99.785,6.832],[99.698,6.866],[99.67,7.041],[99.734,7.129],[99.811,7.146],[99.857,7.072],[99.918,7.139],[99.999,7.06],[100.046,7.063]]]]},"properties":{"iso":"TH-91"}}]}